SALSAT                  
1 46495U 20068K   24165.43855282  .00007503  00000+0  42655-3 0  9998
2 46495  97.8156 124.6356 0012808 333.6562  26.4015 15.13123871203746
UVSQ-SAT                
1 47438U 21006AB  24165.41775462  .00050915  00000+0  97767-3 0  9997
2 47438  97.3258 225.8519 0007072 210.3429 149.7413 15.47781268188152
LEDSAT                  
1 49069U 21073D   24165.24871852  .00014671  00000+0  59252-3 0  9990
2 49069  97.4372 236.4061 0017718 297.6184  62.3254 15.24725078155852
XW-3 (CAS-9)            
1 50466U 21131B   24165.58127592  .00000826  00000+0  27821-3 0  9994
2 50466  98.5282 250.6669 0005207 129.5184 230.6464 14.39657979129484
TEVEL-3                 
1 50988U 22002E   24165.48998385  .00161064  00000+0  14733-2 0  9995
2 50988  97.3753 241.1776 0002551 240.7856 119.3150 15.67301517134474
TEVEL-8                 
1 50989U 22002F   24165.46776526  .00166672  00000+0  15375-2 0  9998
2 50989  97.3778 241.2464 0002438 238.3870 121.7152 15.67074685134461
TEVEL-5                 
1 50998U 22002Q   24165.55287547  .00243395  00000+0  16109-2 0  9992
2 50998  97.3731 242.6948 0004797 247.8465 112.2290 15.74828112134588
TEVEL-6                 
1 50999U 22002R   24165.56326772  .00227785  00000+0  15349-2 0  9998
2 50999  97.3724 242.6585 0004555 250.4881 109.5892 15.74454847134589
TEVEL-1                 
1 51013U 22002AF  24165.58525486  .00155793  00000+0  14406-2 0  9993
2 51013  97.3749 241.1288 0002804 245.5276 114.5692 15.67048084134483
TEVEL-7                 
1 51062U 22002CG  24165.58116822  .00160869  00000+0  14687-2 0  9998
2 51062  97.3767 241.3431 0002894 245.2395 114.8565 15.67348862134486
TEVEL-4                 
1 51063U 22002CH  24165.56302418  .00156240  00000+0  14670-2 0  9995
2 51063  97.3768 241.2071 0002652 246.5412 113.5570 15.66665665134476
TEVEL-2                 
1 51069U 22002CP  24165.55108110  .00160993  00000+0  14690-2 0  9995
2 51069  97.3749 241.2100 0002674 242.1017 117.9973 15.67363002134488
GREENCUBE               
1 53106U 22080B   24150.13546523 -.00000003  00000+0  00000+0 0  9990
2 53106  70.1363 199.1393 0007665 111.3674 248.7804  6.42557538 44049
KAI-1 (RS26S)           
1 53378U 22096J   24165.56590337  .00118278  00000+0  96027-3 0  9994
2 53378  97.3949  84.2831 0004735 115.7792 244.3959 15.70347908103662
SIREN (RS30S)           
1 53384U 22096Q   24165.26836060  .00351437  47187-4  12360-2 0  9999
2 53384  97.3835  86.4050 0008850 136.7655 223.4314 15.89084358103786
CAS-5A (FO-118)         
1 54684U 22167C   24165.60350821  .00024952  00000+0  85803-3 0  9996
2 54684  97.6051 310.3463 0010943 158.2496 201.9211 15.30020170 83757
STRATOSAT-TK 1 (RS52S)  
1 57167U 23091B   24165.58128273  .00013503  00000+0  78010-3 0  9995
2 57167  97.6109 218.6614 0016780 131.0577 229.2107 15.12308651 53018
UMKA 1 (RS40S)          
1 57172U 23091G   24165.61498766  .00005844  00000+0  38727-3 0  9992
2 57172  97.6119 217.6966 0018204 131.4140 228.8656 15.07541745 52950
CUBESX-HSE 3 (RS42S)    
1 57178U 23091N   24165.57398618  .00008280  00000+0  52717-3 0  9990
2 57178  97.6145 218.0720 0018631 126.9573 233.3364 15.08882326 52963
MONITOR-4 (RS57S)       
1 57182U 23091S   24165.56041347  .00008116  00000+0  52332-3 0  9999
2 57182  97.6139 217.8829 0018967 127.8803 232.4144 15.08418831 52957
MONITOR-2 (RS39S)       
1 57184U 23091U   24165.57903653  .00004771  00000+0  31639-3 0  9999
2 57184  97.6139 218.0353 0015571 121.5582 238.7168 15.07645438 52967
SVYATOBOR 1 (RS60S)     
1 57187U 23091X   24165.60522625  .00006504  00000+0  41237-3 0  9993
2 57187  97.6150 218.4674 0015321 118.7007 241.5764 15.09169665 52998
VIZARD-METEO (RS38S)    
1 57189U 23091Z   24165.56412419  .00009095  00000+0  55393-3 0  9995
2 57189  97.6140 218.7946 0013975 117.4324 242.8328 15.10539660 53017
NANOZOND 1 (RS49S)      
1 57190U 23091AA  24165.57192953  .00012856  00000+0  72930-3 0  9991
2 57190  97.6112 219.2806 0012385 122.1213 238.1221 15.13030555 53059
POLYTECH-UNIVERSE 3 (R*)
1 57191U 23091AB  24165.58342931  .00004572  00000+0  30329-3 0  9998
2 57191  97.6107 217.7268 0020838 137.7340 222.5498 15.07579099 52959
UTMN 2 (RS27S)          
1 57203U 23091AP  24165.62011101  .00007792  00000+0  48144-3 0  9990
2 57203  97.6142 218.7180 0014416 117.2187 243.0513 15.10061774 53017
ARCCUBE 1 (RS25S)       
1 57205U 23091AR  24165.61826022  .00014448  00000+0  79448-3 0  9994
2 57205  97.6085 219.4294 0012579 122.7764 237.4681 15.14117270 53075
KUZGTU 1 (RS47S)        
1 57217U 23091AV  24165.58224458  .00007224  00000+0  46227-3 0  9991
2 57217  97.6122 217.9482 0018666 128.0583 232.2333 15.08743722 52967
HADES-D (SO-121)        
1 58567U 23174CY  24165.19745951  .00043426  00000+0  15132-2 0  9999
2 58567  97.4531 240.9135 0012719 233.1301 126.8774 15.29444877 33179
